<?xml version="1.0" encoding="UTF-8" standalone="no"?>
<gpx version="1.1" creator="Xcode" xmlns="http://www.topografix.com/GPX/1/1" xmlns:xsi="http://www.w3.org/2001/XMLSchema-instance" xsi:schemaLocation="http://www.topografix.com/GPX/1/1 http://www.topografix.com/GPX/1/1/gpx.xsd">
  <wpt lat="2.2338799" lon="116.9988290"><time>2026-08-24T04:41:00Z</time></wpt>
  <wpt lat="2.2340260" lon="116.9988356"><time>2026-08-24T04:41:11Z</time></wpt>
  <wpt lat="2.2341337" lon="116.9989159"><time>2026-08-24T04:41:22Z</time></wpt>
  <wpt lat="2.2343043" lon="116.9990586"><time>2026-08-24T04:41:39Z</time></wpt>
  <wpt lat="2.2345138" lon="116.9992966"><time>2026-08-24T04:42:05Z</time></wpt>
  <wpt lat="2.2346035" lon="116.9994780"><time>2026-08-24T04:42:21Z</time></wpt>
  <wpt lat="2.2346181" lon="116.9996308"><time>2026-08-24T04:42:33Z</time></wpt>
  <wpt lat="2.2346065" lon="116.9997428"><time>2026-08-24T04:42:42Z</time></wpt>
  <wpt lat="2.2345257" lon="116.9998290"><time>2026-08-24T04:42:51Z</time></wpt>
  <wpt lat="2.2343971" lon="116.9999004"><time>2026-08-24T04:43:03Z</time></wpt>
  <wpt lat="2.2342295" lon="116.9999777"><time>2026-08-24T04:43:18Z</time></wpt>
  <wpt lat="2.2341151" lon="117.0000371"><time>2026-08-24T04:43:28Z</time></wpt>
  <wpt lat="2.2342419" lon="117.0000492"><time>2026-08-24T04:43:38Z</time></wpt>
  <wpt lat="2.2344698" lon="117.0000644"><time>2026-08-24T04:43:56Z</time></wpt>
  <wpt lat="2.2348566" lon="117.0000948"><time>2026-08-24T04:44:27Z</time></wpt>
  <wpt lat="2.2352990" lon="117.0001177"><time>2026-08-24T04:45:02Z</time></wpt>
  <wpt lat="2.2358064" lon="117.0001291"><time>2026-08-24T04:45:42Z</time></wpt>
  <wpt lat="2.2359156" lon="117.0001386"><time>2026-08-24T04:45:51Z</time></wpt>
  <wpt lat="2.2360496" lon="117.0001558"><time>2026-08-24T04:46:02Z</time></wpt>
  <wpt lat="2.2363828" lon="117.0001862"><time>2026-08-24T04:46:28Z</time></wpt>
  <wpt lat="2.2370189" lon="117.0002265"><time>2026-08-24T04:47:19Z</time></wpt>
  <wpt lat="2.2373349" lon="117.0002360"><time>2026-08-24T04:47:44Z</time></wpt>
  <wpt lat="2.2374714" lon="117.0002384"><time>2026-08-24T04:47:55Z</time></wpt>
  <wpt lat="2.2380363" lon="117.0002741"><time>2026-08-24T04:48:40Z</time></wpt>
  <wpt lat="2.2385079" lon="117.0003026"><time>2026-08-24T04:49:17Z</time></wpt>
  <wpt lat="2.2388789" lon="117.0003383"><time>2026-08-24T04:49:47Z</time></wpt>
  <wpt lat="2.2390417" lon="117.0003478"><time>2026-08-24T04:50:00Z</time></wpt>
  <wpt lat="2.2392619" lon="117.0003383"><time>2026-08-24T04:50:17Z</time></wpt>
  <wpt lat="2.2395467" lon="117.0003597"><time>2026-08-24T04:50:40Z</time></wpt>
  <wpt lat="2.2397430" lon="117.0003716"><time>2026-08-24T04:50:56Z</time></wpt>
</gpx>